provider_id,npi,name,specialty,street,city,state,zip,phone
PRV00001,8752612686,Ryan Munoz,Family Medicine,9402 Peterson Drives,Port Matthew,CO,50298,7785161849
PRV00002,2149938334,Timothy Wong,OB/GYN,34131 Ramirez Roads,Franciscostad,IL,88342,+1-528-232-7648x350
PRV00003,8378385615,Jessica Silva,Cardiology,4139 Lewis Parks Suite 724,East Julie,ND,34939,(332)887-1012x269
PRV00004,8110054933,Jonathan White,Cardiology,784 Erin Crescent Suite 514,Mooretown,VA,94830,248-793-2528
PRV00005,8055995058,Shane Henderson,OB/GYN,15430 Natalie Common Apt. 718,East Donna,OH,22144,383.546.5787
PRV00006,2137651678,David Caldwell,Pediatrics,50983 Adrian Station,East Carloston,VI,43810,582.399.7376
PRV00007,7609857128,Rebecca Rodriguez,Cardiology,656 Owens Stream,Lake Deniseville,AR,53273,538.372.6247
PRV00008,7805745017,Aaron Myers,Urology,108 Tanya Terrace Apt. 267,Lewisfurt,MH,08186,246.787.2343x098
PRV00009,7010379415,Todd Hudson,Endocrinology,97882 Susan Common,North Brooke,TX,31329,001-790-691-6998
PRV00010,3119634399,Kristine Garcia,Cardiology,534 Anderson Rue,Stephenland,AL,60569,+1-638-442-5135
PRV00011,1470939445,Michelle Harris,Neurology,498 Elizabeth Plaza Suite 124,North Juliaberg,KY,37431,+1-648-474-0164x0052
PRV00012,8217611860,Rebecca Valencia,Gastroenterology,680 Charles Spurs Apt. 805,South David,ME,48296,(833)215-8692x322
PRV00013,5567816720,Julia Torres,Endocrinology,563 Moore Squares,South Monicafort,IN,26659,730.836.5414
PRV00014,5047709743,April Frost,OB/GYN,14294 Daniel Mews Suite 569,South Rachelborough,KS,06318,+1-635-661-5951
PRV00015,4095476665,Richard Lawson,Gastroenterology,6482 Robert Light Apt. 994,Kelleytown,ME,38107,577-673-8721x48951
PRV00016,8519962896,Matthew Smith,Gastroenterology,20037 Stanley Roads,Lake Heather,NM,52884,001-716-932-8708x31727
PRV00017,8047877267,Steven Miller,Neurology,727 Green Gateway Suite 873,Scottport,IA,36115,(936)823-1665
PRV00018,6555540744,Rebecca Hurst,Internal Medicine,66909 Woods Knoll,Karenchester,ND,98479,234.867.0656x2729
PRV00019,2948728483,Jennifer Conley,Pediatrics,62720 Gray Forest,Murphyfurt,KY,99068,408.505.3100x3309
PRV00020,4919706735,Eric Byrd,Urology,1937 Wang Expressway,Port Loriport,CT,76350,(863)719-3149x1905
PRV00021,3615507143,Marie Gilbert,Gastroenterology,506 Garcia Lake,Zimmermanchester,HI,96681,+1-677-969-4531
PRV00022,4944899549,Spencer Haynes,Pediatrics,9965 Troy Islands,South Jason,AS,34363,980-983-1367x837
PRV00023,6687206971,Denise King,Endocrinology,43634 Kennedy Pines,Ronaldside,MA,46613,635-618-2337
PRV00024,8760038701,Beth Oneill,Family Medicine,43524 Jean Crossroad,Brandonton,OH,38791,310.394.7775x2047
PRV00025,1248786714,Terry Evans,Cardiology,1902 Lisa Hollow Apt. 318,Obrienbury,WI,68995,001-564-699-0913
PRV00026,5067116918,Scott Jones,Endocrinology,32812 Ricky Spurs,Carterbury,LA,93163,649.436.1832
PRV00027,8438486479,Bobby Williams MD,Internal Medicine,24994 Martinez Spurs,Hollyview,NY,71277,994-601-3990x49027
PRV00028,1540137296,Donna Landry,Internal Medicine,671 Bailey Isle,Elizabethburgh,MA,54456,001-880-271-5451x68087
PRV00029,3361388464,Mr. Mark Lloyd,Gastroenterology,597 Wolf Ford,Andreaport,NV,92022,001-424-980-8613x171
PRV00030,7900268326,Richard Adams,Dermatology,467 Sanchez Plaza Apt. 639,Port Chad,WI,54888,9447997278
