provider_id,npi,name,specialty,street,city,state,zip,phone
PRV00001,5566009041,Jean Lawson,Pediatrics,141 Hodges Mountains,Kramerville,NM,04216,001-507-843-9150x00806
PRV00002,7225516707,Thomas Nielsen,Internal Medicine,377 Michael Springs,Port Steve,LA,03317,624-615-8683
PRV00003,1901749037,Jennifer Burns,Gastroenterology,690 Sanchez Union Suite 625,Christopherhaven,CT,21957,4705499962
PRV00004,8884551090,Monica Reyes,Psychiatry,88368 Farley Ports,Stephenview,TN,72327,001-882-988-3607x5983
PRV00005,4294916953,Tony Jones,OB/GYN,5088 Ellis Burgs Apt. 289,Port Christopher,OH,33962,7706434192
PRV00006,7207890733,Robert Green,Urology,24824 Gibson Islands,Wellstown,ME,51167,983-896-0306x202
PRV00007,4443818037,Walter Hutchinson,Urology,873 Ralph Ports,Donnachester,AR,97160,511-944-2694x2080
PRV00008,5059906722,Brian Wade,Endocrinology,980 Gonzalez Courts,New Emily,NE,78018,487-705-9640x2359
PRV00009,1131383004,Gary Hunter,Orthopedics,41685 Tate Place Apt. 101,East Garrett,ND,28415,355-751-4397x298
PRV00010,9079837913,Derek Macdonald,Family Medicine,1622 Wilson Radial,Jonesside,IN,74683,001-281-374-1040
PRV00011,9714663815,Michelle Edwards,Gastroenterology,03396 Darrell Expressway Apt. 216,Drakeside,PW,39039,850.700.4957
PRV00012,8575038095,Ann Mullins,Cardiology,15971 Lewis River Suite 542,West James,MN,11166,795-636-4052
PRV00013,3374513802,Alison Smith,Psychiatry,1899 John Brooks,South Charles,OH,09796,001-757-672-1851x82222
PRV00014,5387264885,Mrs. Elizabeth Medina,Orthopedics,894 Patricia Divide,Port Leslieside,MP,98304,9349176848
PRV00015,1429497919,David Calderon,Oncology,5247 Laura Mall,North Heathershire,DC,78298,(996)529-1370x2858
PRV00016,8988409533,Maria Wood,Gastroenterology,7736 Castro Stream,Teresabury,AR,09879,834.444.8527x91198
PRV00017,8486757898,Kelly Davis MD,Internal Medicine,6390 Maldonado Stravenue,Patrickburgh,ND,96169,841-829-1736
PRV00018,9449103790,Justin Moyer,Urology,7297 David Rapid,Blankenshipport,KY,33035,679.600.9343x24283
PRV00019,3878940490,Paul Gardner,Oncology,728 Henry Walks Apt. 396,West Lisa,MH,03666,+1-921-985-9468x58501
PRV00020,4664843848,Kelly Pineda,Dermatology,8659 Wilson Lane Suite 380,Cynthiahaven,ID,61001,001-842-879-8358x069
PRV00021,8719792472,Lisa Bailey,Psychiatry,917 Danielle Run Suite 062,Pattonburgh,WI,10123,668-342-7472x780
PRV00022,3855051695,Ronald Mills,OB/GYN,51702 Hannah Locks Suite 943,East Norma,KY,09486,(878)880-2484x593
PRV00023,2609337231,Timothy Fitzpatrick,Orthopedics,4953 Stuart Squares,Port Donna,PR,82087,643.912.9792
PRV00024,8902531710,Brett Lopez Jr.,Psychiatry,27546 Darrell Ford,Carlosbury,MO,42623,+1-403-307-8975x419
PRV00025,5421990790,David Crawford,Orthopedics,3776 Teresa Freeway,Stevenshire,MS,28276,631-500-0756
PRV00026,7778213901,Donald Wilson,Family Medicine,20062 Annette Glens Apt. 174,North Amandahaven,MP,17399,730-672-4376
PRV00027,1731644238,Derek Bishop,Gastroenterology,330 Michael Rapids Apt. 586,Lake Nicole,NE,87321,001-714-321-2036x00187
PRV00028,3355095800,Amy Green,Oncology,28072 Hines Mission Apt. 841,Laurenland,ME,04982,001-724-861-4163x8835
PRV00029,7501599785,Austin Turner,OB/GYN,27889 Penny Village Suite 235,Meyerville,MT,45770,+1-385-464-5545x8808
PRV00030,6812268282,Samuel King II,Endocrinology,559 Shannon Harbors Suite 756,New Laurieberg,AR,69144,001-455-256-4795
PRV00031,4132749951,Christine Jones,Dermatology,3921 Katie Stream,Port Coryside,TX,35330,001-781-913-2860
PRV00032,4475229416,Katelyn Powell,OB/GYN,39736 Lowe Plains Apt. 714,Harrisside,WI,50402,799.660.5703x40814
PRV00033,6177519760,Amanda Fisher,Oncology,869 Chavez Curve Suite 928,West Dana,NE,96987,901-310-6474x5756
PRV00034,3381134998,Jessica Waters,Family Medicine,2620 Lisa Land Apt. 946,Sheilaport,WA,55650,637.466.1123x2301
PRV00035,7070506973,John Mcguire,Oncology,62016 Andrea Place Suite 501,Conleyville,KS,90226,8313617487
PRV00036,7074907055,Mary Frost DVM,Orthopedics,26932 Butler Plain Suite 783,Michelleville,AL,99824,408-474-1384x436
PRV00037,7925430606,Christopher Blake,Family Medicine,68908 Sonya Groves Suite 744,Lewisstad,PA,62176,001-997-982-0858x2359
PRV00038,3576358404,Samantha Robinson,Psychiatry,22431 Anna Spur Apt. 393,Roberttown,WI,03129,001-334-654-9860x1552
PRV00039,3510240337,Blake Frost,Neurology,905 Christopher Cove,Loganview,NC,07023,(631)854-0851x529
PRV00040,2096479553,Amy Romero,Internal Medicine,998 Elliott Plain,Turnerbury,SC,40172,(633)664-8048
PRV00041,1302595366,Samantha Webb,Gastroenterology,61518 Gardner Vista Apt. 947,East Charles,OR,19103,001-255-242-2676x19244
PRV00042,2945614990,Brett Maxwell,Family Medicine,8170 George Manors,Sarahchester,MO,79901,+1-900-519-2885x8495
PRV00043,8540187780,Ian Molina,Neurology,85210 Henderson Stream,Jonton,RI,57500,373-298-2051x82875
PRV00044,2153807478,Bryan Freeman,Cardiology,62631 Matthew Isle Apt. 775,Curtisborough,NE,58251,622-406-6101x276
PRV00045,3683504527,Vickie Solomon,Neurology,140 Sanders Roads,New Heather,AL,71820,+1-825-531-8822x69083
PRV00046,2246761692,Margaret Mendoza,Orthopedics,389 John Tunnel,Wilsonton,MS,12256,930.804.7462x92858
PRV00047,5980553707,Lisa Simon,Pediatrics,663 Montoya Lake,West Ashley,PR,23459,524-544-5649x70224
PRV00048,5088626994,Timothy Hernandez,Oncology,893 Moran Garden,New Steven,VT,26169,+1-800-466-6299x28813
PRV00049,8351222782,Lisa Fischer,Gastroenterology,65234 Michael Plain Suite 184,Lake Steven,LA,82037,590-805-2211x693
PRV00050,8312721060,Ms. Mary Gardner,Psychiatry,368 Lisa Prairie,Jessicaville,AS,26917,840.828.8364
PRV00051,3034831019,Sarah Bass,Psychiatry,1228 Shawn Cape Suite 368,Rebeccaville,CA,89383,529.583.8685
PRV00052,6635018266,Rebecca Wilkinson DDS,Family Medicine,915 Stephen Village Apt. 247,New Waltershire,MO,12557,(645)370-8706x4952
PRV00053,6102589964,Kari Walters,Orthopedics,6809 Benjamin Pines Apt. 155,Karenton,SC,49018,+1-575-488-0255
PRV00054,5195058968,Danielle Tyler,Internal Medicine,165 Underwood Junctions,Chelseaton,VT,08819,001-668-549-9112x46124
PRV00055,5189970085,Jeremy Cox,Endocrinology,47084 Lynn Club,Matthewport,VI,68156,001-500-356-2809x8623
PRV00056,5371694837,Timothy Reid,Cardiology,814 Gonzalez Centers,Suzannemouth,RI,95296,3704248003
PRV00057,9741658811,Michael Phillips,Pediatrics,337 Sanchez Parkways,Markland,ID,78399,001-869-775-0701
PRV00058,4574464663,Jennifer Fernandez,Pediatrics,63879 Greene Streets Suite 972,Emmahaven,ME,74353,940-790-7753x873
PRV00059,7513745319,Rachel Berg,Gastroenterology,6015 Jonathan Plains,West Nicholasmouth,MA,40979,715.511.2469
PRV00060,5426823972,Jennifer Hall,Cardiology,289 Turner Lane,Homouth,AS,10227,4936336639
PRV00061,8004867726,Ryan Goodwin,Gastroenterology,47722 Victoria Mews Suite 875,New Debbieside,TN,36692,+1-471-483-9465x3019
PRV00062,8462296296,Kevin Boyd,Family Medicine,13006 Carl Branch Apt. 855,New Alanborough,NJ,26729,723.760.3870
PRV00063,5157113076,Dustin Cooper,Pediatrics,09281 Jeffery Fall Suite 105,North Marissa,FL,30770,001-217-333-2103
PRV00064,2315920532,Phillip Nielsen,Family Medicine,344 Pitts Stravenue,Lake Johnathanborough,MD,46366,+1-366-816-3752x913
PRV00065,9329180414,Joshua Acosta,Internal Medicine,455 Bryant Knoll Suite 678,West Davidburgh,ME,74794,(772)722-1943
PRV00066,5974462864,Joseph Galloway,Urology,7416 Andrea Mission,Port Ericmouth,CA,90299,001-635-558-5855x1260
PRV00067,2083869816,Courtney Hunter,Endocrinology,45963 Barton Fort,Heiditown,ID,13233,822-931-4988x898
PRV00068,4652984215,David Horton,Family Medicine,85361 Harris Track Apt. 230,South Michael,AR,47730,517.739.5290
PRV00069,4519356806,Samuel Baker,Endocrinology,005 Hansen Dale Suite 185,Cassieshire,CO,63536,+1-450-625-3544x47604
PRV00070,2979346392,Guy Sanders,Endocrinology,66934 Tate Stravenue,Johnstonview,TX,23094,993.967.2730x31108
PRV00071,3185596104,Michael Bates,Neurology,297 Smith Plaza Suite 299,Brettstad,GU,46757,917-953-2270x5952
PRV00072,6155710781,William Rivera,OB/GYN,390 Pena Pass,South Victoria,DE,41764,(698)443-8677
PRV00073,6128700542,Russell Brown,Internal Medicine,342 Lisa Junctions Apt. 668,New Paige,NV,70390,001-211-586-2762x7789
PRV00074,6970264572,Ashley Brown,Internal Medicine,6452 White Trail Apt. 801,South Melissa,NV,44449,946.475.8126x869
PRV00075,3146624321,Jennifer Hughes,Oncology,52933 Olivia Run Apt. 116,South Edwardstad,OH,42659,001-974-449-6542x172
PRV00076,2208396417,Carol Herrera,Orthopedics,81855 Lynn Points Suite 958,Morrisfurt,GU,70789,+1-830-559-0560x555
PRV00077,4361672518,Gregory Stokes,Pediatrics,56620 Curtis Keys Apt. 319,Paulport,CT,57381,(618)525-2665
PRV00078,2843573563,Emily Taylor,Orthopedics,28221 Richards Curve,Andersonmouth,PA,96525,(423)537-9701x287
PRV00079,3896762489,Robert Li,Dermatology,245 Patrick Burgs Suite 333,Lake Heiditon,KY,68524,001-816-851-7987x42655
PRV00080,2007773001,Jeffrey Floyd,OB/GYN,8331 John Brooks Apt. 679,Bradleyton,HI,69612,(223)756-5908x72859
PRV00081,1173518645,Veronica Jordan,Urology,16205 Edward Burg,Littlefort,CA,98832,889.981.2869x8638
PRV00082,1728830787,Mr. Jeffrey Evans,Pediatrics,1139 Garcia Knoll Apt. 319,North Williambury,CO,40788,+1-209-604-9773x4577
PRV00083,6209658731,Karen Mccoy,Oncology,774 Manuel Shoals,Wolfchester,TX,73896,401-927-1544x8421
PRV00084,6391434752,Diane Lucas,Neurology,7958 Martinez Bridge,Port Joseph,AS,08991,001-980-796-1159x9971
PRV00085,2461513966,Harry Vaughn,Orthopedics,20910 Angela Inlet,East Amanda,IN,28985,001-664-292-4931
PRV00086,3099349203,Dr. Tiffany Perry,Dermatology,9476 Pittman Cliff,East Katrina,AZ,83959,(582)623-3051x753
PRV00087,5742825007,Melissa James,Endocrinology,861 Cohen Tunnel,South Larryport,MH,27835,6678802371
PRV00088,2746329094,Lori Ross,Family Medicine,513 Travis Crescent,South Michael,SD,78455,(606)926-2046x96139
PRV00089,4384934383,Jennifer Arellano,OB/GYN,8152 Harding Springs Apt. 815,Bakerville,LA,18719,2798286738
PRV00090,2464143461,Heather Davis,Pediatrics,9130 Miller Ridge,West Kaylaland,CA,06444,695.652.5835x9333
PRV00091,9272817571,Rebecca Massey,Endocrinology,490 King Shoals Apt. 232,West Raymondberg,GA,73007,356-632-0736
PRV00092,6440536624,Kyle Jackson,Internal Medicine,487 Miller Cliffs,North Alexandra,VT,73393,(681)630-3438x94445
PRV00093,4973133406,Taylor Hanson,Dermatology,07031 Hayes Hollow,East Emilyville,ID,04449,+1-407-708-3728x03210
PRV00094,9146519667,Kim Ramirez,Psychiatry,843 Smith Harbors,Jonathonside,MS,53457,(279)762-9380
PRV00095,4380202246,Kimberly Vargas,Internal Medicine,56069 Collier Tunnel,Port Hannahberg,OH,54340,534.464.8094
PRV00096,9643113768,Teresa Robinson,Dermatology,37206 Smith Unions,Port Sophiashire,NE,62744,816.531.2587x785
PRV00097,1062483857,Julia Rodriguez,Gastroenterology,6569 Nicholas River Apt. 295,North Robertshire,NM,08474,+1-437-458-1504x9895
PRV00098,1171899776,Patrick Jackson,OB/GYN,473 Brady Burgs Suite 144,New Christopherhaven,TN,24240,(667)271-9791x000
PRV00099,7815223510,Crystal Foster MD,Cardiology,2879 Smith Well Suite 335,North Scottborough,MO,20566,6789982063
PRV00100,5791285915,Joshua Waters,Pediatrics,96668 Nelson Junction,North Thomaschester,GA,56936,001-689-524-6745x7686
PRV00101,1234567890,Hennepin County Medical Center,Infectious Disease,701 Park Ave,Minneapolis,MN,55415,612-873-3000
